LEMUR-2-CHANUSIAK       
1 43697U 18088H   19045.15404031  .00001316  00000-0  58064-4 0  9999
2 43697  85.0372  40.3604 0014018 287.8499  72.1212 15.20651331 14449
LEMUR-2-ORZULAK         
1 43731U 18096N   19045.79004677  .00001792  00000-0  70339-4 0  9996
2 43731  97.4750 115.9112 0022750  55.5293  82.4722 15.26837376 11833
LEMUR-2-KOBYSZCZE       
1 43732U 18096P   19045.84375962  .00001959  00000-0  76452-4 0  9998
2 43732  97.4742 115.9724 0022801  56.2953  35.4538 15.26917611 11847
LEMUR-2-DULY            
1 43745U 18096AC  19045.71737022  .00002020  00000-0  78911-4 0  9999
2 43745  97.4747 115.8390 0022671  56.2427  43.9982 15.26853755 11839
LEMUR-2-VLADIMIR        
1 43746U 18096AD  19045.71340204  .00002268  00000-0  87991-4 0  9994
2 43746  97.4744 115.8414 0022903  56.7131  42.4597 15.26943854 11857
LEMUR-2-CHRISTINAHOLT   
1 43882U 18111G   19045.83200025  .00001081  00000-0  10051-3 0  9996
2 43882  97.7274 315.6293 0013533  79.2420 281.0324 14.96364650  5437
LEMUR-2-TINYKEV         
1 43883U 18111H   19045.83054254  .00001102  00000-0  10222-3 0  9992
2 43883  97.7277 315.6333 0013444  79.3539 280.9195 14.96406607  5432
LEMUR-2-REMY-COLTON     
1 43884U 18111J   19045.82953242  .00000970  00000-0  90580-4 0  9995
2 43884  97.7280 315.6366 0013384  79.7799 280.4931 14.96425978  5433
LEMUR-2-GUSTAVO         
1 43885U 18111K   19045.76051636  .00001049  00000-0  97307-4 0  9997
2 43885  97.7282 315.5752 0013222  79.4589 280.8121 14.96492386  5420
LEMUR-2-ZO              
1 43886U 18111L   19045.82467311  .00000992  00000-0  92174-4 0  9999
2 43886  97.7286 315.6476 0013120  78.7568 281.5127 14.96573088  5439
LEMUR-2-NATALIEMURRAY   
1 43887U 18111M   19044.95255409  .00001151  00000-0  10584-3 0  9998
2 43887  97.7283 314.7929 0013039  80.0059 280.2633 14.96667784  7291
LEMUR-2-SARAHBETTYBOO   
1 43888U 18111N   19045.81968082  .00001174  00000-0  10766-3 0  9990
2 43888  97.7290 315.6586 0013018  76.7191 283.5481 14.96735964  7423
LEMUR-2-DAISY-HARPER    
1 43889U 18111P   19045.81803634  .00001136  00000-0  10419-3 0  9995
2 43889  97.7287 315.6603 0013053  76.1876 284.0798 14.96784730  7414
